NORAD_CAT_ID,OBJECT_NAME,OBJECT_TYPE,EPOCH,MEAN_MOTION,ECCENTRICITY,INCLINATION,RA_OF_ASC_NODE,ARG_OF_PERICENTER,MEAN_ANOMALY,BSTAR,MEAN_MOTION_DOT,MEAN_MOTION_DDOT,TLE_LINE0,TLE_LINE1,TLE_LINE2,SEMIMAJOR_AXIS,PERIOD,APOGEE,PERIGEE,DECAYED
49176.0,STARLINK-3069,PAYLOAD,2024-04-14 16:02:38,14.98331887,0.0002801,70.0021,204.3277,259.3274,100.757,3.1203e-05,2.79e-06,0.0,0 STARLINK-3069,1 49176U 21082AY  24105.66849875  .00000279  00000-0  31203-4 0  9996,2 49176  70.0021 204.3277 0002801 259.3274 100.7570 14.98331887143007,6950.187,96.107,573.999,570.105,0.0
49176.0,STARLINK-3069,PAYLOAD,2024-04-15 14:28:31,14.98331225,0.0002776,70.0024,201.9726,256.1583,103.9268,-1.5513e-05,-2.78e-06,0.0,0 STARLINK-3069,1 49176U 21082AY  24106.60313912 -.00000278  00000-0 -15513-4 0  9996,2 49176  70.0024 201.9726 0002776 256.1583 103.9268 14.98331225143141,6950.189,96.107,573.983,570.125,0.0
49176.0,STARLINK-3069,PAYLOAD,2024-04-16 00:05:19,14.98330893,0.0003104,70.0014,200.9596,270.0706,90.0098,-6.8647e-06,-1.75e-06,0.0,0 STARLINK-3069,1 49176U 21082AY  24107.00369911 -.00000175  00000-0 -68647-5 0  9994,2 49176  70.0014 200.9596 0003104 270.0706  90.0098 14.98330893143206,6950.19,96.107,574.212,569.898,0.0
49176.0,STARLINK-3069,PAYLOAD,2024-04-16 12:54:27,14.98295459,0.0003018,70.0017,199.6154,267.3312,92.7502,-0.00035399,-4.31e-05,0.0,0 STARLINK-3069,1 49176U 21082AY  24107.53781404 -.00004310  00000-0 -35399-3 0  9998,2 49176  70.0017 199.6154 0003018 267.3312  92.7502 14.98295459143284,6950.3,96.109,574.262,570.067,0.0
49176.0,STARLINK-3069,PAYLOAD,2024-04-16 14:30:35,14.98296324,0.0002631,70.0025,199.4471,263.2567,96.8293,-0.00031774,-3.879e-05,0.0,0 STARLINK-3069,1 49176U 21082AY  24107.60457434 -.00003879  00000-0 -31774-3 0  9991,2 49176  70.0025 199.4471 0002631 263.2567  96.8293 14.98296324143295,6950.297,96.109,573.991,570.333,0.0
49176.0,STARLINK-3069,PAYLOAD,2024-04-16 16:06:45,14.98275583,0.0002449,70.002,199.2769,268.4366,91.6513,-0.00055362,-6.683e-05,0.0,0 STARLINK-3069,1 49176U 21082AY  24107.67135513 -.00006683  00000-0 -55362-3 0  9994,2 49176  70.0020 199.2769 0002449 268.4366  91.6513 14.98275583143303,6950.361,96.11,573.928,570.524,0.0
49176.0,STARLINK-3069,PAYLOAD,2024-04-17 04:55:48,14.98303122,0.0003431,70.0014,197.9302,276.3072,83.7696,-0.00021223,-2.623e-05,0.0,0 STARLINK-3069,1 49176U 21082AY  24108.20541727 -.00002623  00000-0 -21223-3 0  9991,2 49176  70.0014 197.9302 0003431 276.3072  83.7696 14.98303122143381,6950.276,96.109,574.526,569.756,0.0
49176.0,STARLINK-3069,PAYLOAD,2024-04-17 12:56:25,14.98344175,0.0003114,70.0015,197.0885,271.0562,89.024,0.00024191,2.796e-05,0.0,0 STARLINK-3069,1 49176U 21082AY  24108.53918121  .00002796  00000-0  24191-3 0  9999,2 49176  70.0015 197.0885 0003114 271.0562  89.0240 14.98344175143436,6950.149,96.106,574.178,569.85,0.0
49176.0,STARLINK-3069,PAYLOAD,2024-04-17 14:32:33,14.98346591,0.0003094,70.0015,196.9203,271.0027,89.0778,0.00026539,3.076e-05,0.0,0 STARLINK-3069,1 49176U 21082AY  24108.60593864  .00003076  00000-0  26539-3 0  9990,2 49176  70.0015 196.9203 0003094 271.0027  89.0778 14.98346591143442,6950.142,96.106,574.157,569.856,0.0
49176.0,STARLINK-3069,PAYLOAD,2024-04-17 16:08:40,14.98349162,0.0003104,70.0015,196.7522,269.0538,91.0265,0.00028629,3.326e-05,0.0,0 STARLINK-3069,1 49176U 21082AY  24108.67269580  .00003326  00000-0  28629-3 0  9992,2 49176  70.0015 196.7522 0003104 269.0538  91.0265 14.98349162143452,6950.134,96.106,574.156,569.841,0.0
49176.0,STARLINK-3069,PAYLOAD,2024-04-18 11:22:18,14.98335823,0.0003023,70.0031,194.7361,254.9923,105.0902,0.00019276,2.208e-05,0.0,0 STARLINK-3069,1 49176U 21082AY  24109.47382270  .00002208  00000-0  19276-3 0  9999,2 49176  70.0031 194.7361 0003023 254.9923 105.0902 14.98335823143576,6950.175,96.107,574.141,569.939,0.0
49176.0,STARLINK-3069,PAYLOAD,2024-04-18 16:10:42,14.98322867,0.0003209,70.0015,194.23,260.3737,99.7059,0.00047747,5.608e-05,0.0,0 STARLINK-3069,1 49176U 21082AY  24109.67410460  .00005608  00000-0  47747-3 0  9995,2 49176  70.0015 194.2300 0003209 260.3737  99.7059 14.98322867143606,6950.215,96.107,574.31,569.85,0.0
49176.0,STARLINK-3069,PAYLOAD,2024-04-19 14:36:35,14.98348845,0.0003084,70.0025,191.8736,256.8925,103.189,-4.2295e-05,-5.98e-06,0.0,0 STARLINK-3069,1 49176U 21082AY  24110.60874006 -.00000598  00000-0 -42295-4 0  9999,2 49176  70.0025 191.8736 0003084 256.8925 103.1890 14.98348845143745,6950.135,96.106,574.143,569.856,0.0
49176.0,STARLINK-3069,PAYLOAD,2024-04-20 13:02:26,14.98355489,0.0003193,70.0017,189.5178,259.309,100.7709,9.731e-05,1.069e-05,0.0,0 STARLINK-3069,1 49176U 21082AY  24111.54335716  .00001069  00000-0  97310-4 0  9993,2 49176  70.0017 189.5178 0003193 259.3090 100.7709 14.98355489143881,6950.114,96.105,574.198,569.76,0.0
49176.0,STARLINK-3069,PAYLOAD,2024-04-20 14:38:37,14.98306461,0.0002507,70.0026,189.3491,246.9165,113.173,-0.00040837,-4.959e-05,0.0,0 STARLINK-3069,1 49176U 21082AY  24111.61016007 -.00004959  00000-0 -40837-3 0  9994,2 49176  70.0026 189.3491 0002507 246.9165 113.1730 14.98306461143899,6950.266,96.109,573.873,570.388,0.0
49176.0,STARLINK-3069,PAYLOAD,2024-04-21 13:04:30,14.9831021,0.0002302,70.0034,186.9935,232.2919,127.8031,-0.0002186,-2.699e-05,0.0,0 STARLINK-3069,1 49176U 21082AY  24112.54480218 -.00002699  00000-0 -21860-3 0  9990,2 49176  70.0034 186.9935 0002302 232.2919 127.8031 14.98310210144032,6950.254,96.108,573.719,570.519,0.0
49176.0,STARLINK-3069,PAYLOAD,2024-04-21 14:40:38,14.98318484,0.0002706,70.0019,186.8248,251.6212,108.4653,-0.0002487,-3.058e-05,0.0,0 STARLINK-3069,1 49176U 21082AY  24112.61155778 -.00003058  00000-0 -24870-3 0  9992,2 49176  70.0019 186.8248 0002706 251.6212 108.4653 14.98318484144047,6950.229,96.108,573.974,570.213,0.0
49176.0,STARLINK-3069,PAYLOAD,2024-04-22 05:05:49,14.98352213,0.000333,69.999,185.307,268.9719,91.1059,-0.00019899,-2.468e-05,0.0,0 STARLINK-3069,1 49176U 21082AY  24113.21237469 -.00002468  00000-0 -19899-3 0  9996,2 49176  69.9990 185.3070 0003330 268.9719  91.1059 14.98352213144132,6950.124,96.106,574.304,569.675,0.0
49176.0,STARLINK-3069,PAYLOAD,2024-04-22 09:54:12,14.98351608,0.0002451,70.0024,184.8034,255.5948,104.4939,-1.3438e-05,-2.53e-06,0.0,0 STARLINK-3069,1 49176U 21082AY  24113.41264793 -.00000253  00000-0 -13438-4 0  9992,2 49176  70.0024 184.8034 0002451 255.5948 104.4939 14.98351608144161,6950.126,96.106,573.695,570.288,0.0
49176.0,STARLINK-3069,PAYLOAD,2024-04-22 14:42:36,14.98355803,0.0002034,70.0035,184.2992,233.4042,126.693,6.4666e-05,6.79e-06,0.0,0 STARLINK-3069,1 49176U 21082AY  24113.61292104  .00000679  00000-0  64666-4 0  9990,2 49176  70.0035 184.2992 0002034 233.4042 126.6930 14.98355803144198,6950.113,96.105,573.392,570.564,0.0
49176.0,STARLINK-3069,PAYLOAD,2024-04-23 05:07:50,14.98321146,0.0002556,70.0016,182.7847,260.4965,99.5905,0.00016111,1.829e-05,0.0,0 STARLINK-3069,1 49176U 21082AY  24114.21378342  .00001829  00000-0  16111-3 0  9995,2 49176  70.0016 182.7847 0002556 260.4965  99.5905 14.98321146144285,6950.22,96.108,573.862,570.309,0.0
49176.0,STARLINK-3069,PAYLOAD,2024-04-23 14:44:39,14.9832142,0.0002801,70.001,181.7752,257.742,102.3425,0.00012051,1.345e-05,0.0,0 STARLINK-3069,1 49176U 21082AY  24114.61434530  .00001345  00000-0  12051-3 0  9993,2 49176  70.0010 181.7752 0002801 257.7420 102.3425 14.98321420144343,6950.219,96.108,574.031,570.138,0.0
49176.0,STARLINK-3069,PAYLOAD,2024-04-24 03:33:43,14.98336035,0.0002602,70.0005,180.4277,254.8797,105.2074,-3.8488e-05,-5.52e-06,0.0,0 STARLINK-3069,1 49176U 21082AY  24115.14841905 -.00000552  00000-0 -38488-4 0  9994,2 49176  70.0005 180.4277 0002602 254.8797 105.2074 14.98336035144428,6950.174,96.107,573.848,570.231,0.0
49176.0,STARLINK-3069,PAYLOAD,2024-04-24 13:10:31,14.98342868,0.0002464,70.0011,179.4182,255.0148,105.0739,3.4916e-05,3.24e-06,0.0,0 STARLINK-3069,1 49176U 21082AY  24115.54897073  .00000324  00000-0  34916-4 0  9992,2 49176  70.0011 179.4182 0002464 255.0148 105.0739 14.98342868144480,6950.153,96.106,573.731,570.306,0.0
49176.0,STARLINK-3069,PAYLOAD,2024-04-25 05:11:52,14.98319922,0.0002149,70.0031,177.734,230.3959,129.7011,0.00012326,1.378e-05,0.0,0 STARLINK-3069,1 49176U 21082AY  24116.21657950  .00001378  00000-0  12326-3 0  9995,2 49176  70.0031 177.7340 0002149 230.3959 129.7011 14.98319922144587,6950.224,96.108,573.583,570.595,0.0
49176.0,STARLINK-3069,PAYLOAD,2024-04-25 13:12:33,14.98320867,0.0002799,70.0007,176.8914,258.6227,101.4618,6.554e-05,6.89e-06,0.0,0 STARLINK-3069,1 49176U 21082AY  24116.55038222  .00000689  00000-0  65540-4 0  9998,2 49176  70.0007 176.8914 0002799 258.6227 101.4618 14.98320867144635,6950.221,96.108,574.032,570.141,0.0
49176.0,STARLINK-3069,PAYLOAD,2024-04-26 05:13:53,14.98333079,0.0002816,70.0009,175.21,255.6679,104.4168,-2.2241e-05,-3.58e-06,0.0,0 STARLINK-3069,1 49176U 21082AY  24117.21797728 -.00000358  00000-0 -22241-4 0  9991,2 49176  70.0009 175.2100 0002816 255.6679 104.4168 14.98333079144738,6950.183,96.107,574.006,570.091,0.0
49176.0,STARLINK-3069,PAYLOAD,2024-04-26 13:14:33,14.98335706,0.0002631,70.0013,174.3683,248.4916,111.5963,2.7572e-05,2.36e-06,0.0,0 STARLINK-3069,1 49176U 21082AY  24117.55177338  .00000236  00000-0  27572-4 0  9992,2 49176  70.0013 174.3683 0002631 248.4916 111.5963 14.98335706144784,6950.175,96.107,573.869,570.212,0.0
49176.0,STARLINK-3069,PAYLOAD,2024-04-27 13:16:33,14.98335186,0.0002873,70.0004,171.8405,268.9867,91.0962,0.00015063,1.705e-05,0.0,0 STARLINK-3069,1 49176U 21082AY  24118.55316759  .00001705  00000-0  15063-3 0  9998,2 49176  70.0004 171.8405 0002873 268.9867  91.0962 14.98335186144938,6950.177,96.107,574.039,570.045,0.0
49176.0,STARLINK-3069,PAYLOAD,2024-04-27 21:17:15,14.98322727,0.0002185,70.003,170.9995,272.7457,87.3452,-4.3835e-06,-1.45e-06,0.0,0 STARLINK-3069,1 49176U 21082AY  24118.88698245 -.00000145  00000-0 -43835-5 0  9996,2 49176  70.0030 170.9995 0002185 272.7457  87.3452 14.98322727144989,6950.215,96.107,573.599,570.562,0.0
